GLOBALSTAR M094         
1 39074U 13005C   25333.59224683 -.00000100  00000+0  19409-4 0  9995
2 39074  51.9977  38.5064 0000304 144.6045 215.4842 12.62265028593265
GLOBALSTAR M096         
1 39075U 13005D   25333.60534154 -.00000098  00000+0  30570-4 0  9993
2 39075  52.0076  87.1086 0000642 131.1594 228.9328 12.62269038592180
GLOBALSTAR M078         
1 39076U 13005E   25333.73777642 -.00000081  00000+0  12843-3 0  9993
2 39076  51.9838 170.9952 0001209 136.8970 223.1991 12.62272258590828
GLOBALSTAR M095         
1 39077U 13005F   25333.84312448 -.00000078  00000+0  14585-3 0  9996
2 39077  52.0045 167.9945 0000812 112.5841 247.5112 12.62267034590692
GLOBALSTAR M087         
1 52888U 22064A   25333.61853595 -.00000091  00000+0  71358-4 0  9991
2 52888  52.0010 310.0290 0000203  41.5616 318.5267 12.62260740165930
